{
    "links": {
        "self": "http://www.neowsapp.com/rest/v1/neo/3879310?api_key=iIulBulltgU6a56xZRHN4H3l9WmuAYTsLGpBGhQ2"
    },
    "id": "3879310",
    "neo_reference_id": "3879310",
    "name": "(2019 UM3)",
    "designation": "2019 UM3",
    "nasa_jpl_url": "http://ssd.jpl.nasa.gov/sbdb.cgi?sstr=3879310",
    "absolute_magnitude_h": 26.6,
    "estimated_diameter": {
        "kilometers": {
            "estimated_diameter_min": 0.0127219879,
            "estimated_diameter_max": 0.0284472297
        },
        "meters": {
            "estimated_diameter_min": 12.7219878539,
            "estimated_diameter_max": 28.4472296503
        },
        "miles": {
            "estimated_diameter_min": 0.0079050743,
            "estimated_diameter_max": 0.0176762835
        },
        "feet": {
            "estimated_diameter_min": 41.7388066307,
            "estimated_diameter_max": 93.330808926
        }
    },
    "is_potentially_hazardous_asteroid": false,
    "close_approach_data": [
        {
            "close_approach_date": "2019-10-17",
            "close_approach_date_full": "2019-Oct-17 08:38",
            "epoch_date_close_approach": 1571301480000,
            "relative_velocity": {
                "kilometers_per_second": "9.0579318589",
                "kilometers_per_hour": "32608.5546921742",
                "miles_per_hour": "20261.6877752568"
            },
            "miss_distance": {
                "astronomical": "0.0343383072",
                "lunar": "13.3576015008",
                "kilometers": "5136937.616525664",
                "miles": "3191945.0224516032"
            },
            "orbiting_body": "Earth"
        }
    ],
    "orbital_data": {
        "orbit_id": "2",
        "orbit_determination_date": "2019-10-24 06:07:04",
        "first_observation_date": "2019-10-22",
        "last_observation_date": "2019-10-23",
        "data_arc_in_days": 1,
        "observations_used": 14,
        "orbit_uncertainty": "9",
        "minimum_orbit_intersection": ".0343125",
        "jupiter_tisserand_invariant": "3.395",
        "epoch_osculation": "2458779.5",
        "eccentricity": ".5557261296277307",
        "semi_major_axis": "2.25214341910288",
        "inclination": "7.317349644876939",
        "ascending_node_longitude": "214.9948489654621",
        "orbital_period": "1234.50397318473",
        "perihelion_distance": "1.000568473438272",
        "perihelion_argument": "149.9519485606282",
        "aphelion_distance": "3.503718364767487",
        "perihelion_time": "2458758.641464325549",
        "mean_anomaly": "6.082663973474886",
        "mean_motion": ".2916151003315808",
        "equinox": "J2000",
        "orbit_class": {
            "orbit_class_type": "APO",
            "orbit_class_description": "Near-Earth asteroid orbits which cross the Earth’s orbit similar to that of 1862 Apollo",
            "orbit_class_range": "a (semi-major axis) > 1.0 AU; q (perihelion) < 1.017 AU"
        }
    },
    "is_sentry_object": false
}